{
  "type": "FeatureCollection",
  "features": [
    {
      "type": "Feature",
      "properties": {
        "norad_id": 30673,
        "name": "FENGYUN 1C DEB",
        "group": "fengyun-1c-debris",
        "lat": -4.563514049801257,
        "lon": 33.91432287839105,
        "alt_km": 919.773502598272,
        "timestamp": "2025-12-09T23:33:24.132593+00:00",
        "meta_object_name": "FENGYUN 1C DEB",
        "meta_object_id": "1999-025AQF",
        "meta_epoch": "2025-12-09T01:37:45.280416",
        "meta_mean_motion": 14.03454034,
        "meta_eccentricity": 0.00524905,
        "meta_inclination": 98.9208,
        "meta_ra_of_asc_node": 32.3001,
        "meta_arg_of_pericenter": 152.8576,
        "meta_mean_anomaly": 269.313,
        "meta_ephemeris_type": 0,
        "meta_classification_type": "U",
        "meta_norad_cat_id": 30673,
        "meta_element_set_no": 999,
        "meta_rev_at_epoch": 96480,
        "meta_bstar": 0.00025961309,
        "meta_mean_motion_dot": 3.68e-06,
        "meta_mean_motion_ddot": 0,
        "tle_line1": "1 30673U 99025AQF 25343.06788519  .00000368  00000+0  25961-3 0  9997",
        "tle_line2": "2 30673  98.9208  32.3001 0052490 152.8576 269.3130 14.03454034964809"
      },
      "geometry": {
        "type": "Point",
        "coordinates": [
          33.91432287839105,
          -4.563514049801257
        ]
      }
    },
    {
      "type": "Feature",
      "properties": {
        "norad_id": 30674,
        "name": "FENGYUN 1C DEB",
        "group": "fengyun-1c-debris",
        "lat": 47.81375025814439,
        "lon": -23.58648753869777,
        "alt_km": 595.4395728917461,
        "timestamp": "2025-12-09T23:33:24.132603+00:00",
        "meta_object_name": "FENGYUN 1C DEB",
        "meta_object_id": "1999-025AQG",
        "meta_epoch": "2025-12-09T10:07:07.694976",
        "meta_mean_motion": 14.94840399,
        "meta_eccentricity": 0.00247716,
        "meta_inclination": 98.9429,
        "meta_ra_of_asc_node": 145.77,
        "meta_arg_of_pericenter": 309.7443,
        "meta_mean_anomaly": 50.1591,
        "meta_ephemeris_type": 0,
        "meta_classification_type": "U",
        "meta_norad_cat_id": 30674,
        "meta_element_set_no": 999,
        "meta_rev_at_epoch": 97302,
        "meta_bstar": 0.0096400262,
        "meta_mean_motion_dot": 0.00107105,
        "meta_mean_motion_ddot": 0,
        "tle_line1": "1 30674U 99025AQG 25343.42161684  .00107105  00000+0  96400-2 0  9998",
        "tle_line2": "2 30674  98.9429 145.7700 0024771 309.7443  50.1591 14.94840399973021"
      },
      "geometry": {
        "type": "Point",
        "coordinates": [
          -23.58648753869777,
          47.81375025814439
        ]
      }
    },
    {
      "type": "Feature",
      "properties": {
        "norad_id": 30675,
        "name": "FENGYUN 1C DEB",
        "group": "fengyun-1c-debris",
        "lat": 25.979205040217373,
        "lon": -112.59059303097906,
        "alt_km": 763.8687552270376,
        "timestamp": "2025-12-09T23:33:24.132614+00:00",
        "meta_object_name": "FENGYUN 1C DEB",
        "meta_object_id": "1999-025AQH",
        "meta_epoch": "2025-12-09T04:28:15.590784",
        "meta_mean_motion": 14.27355823,
        "meta_eccentricity": 0.00540987,
        "meta_inclination": 98.7539,
        "meta_ra_of_asc_node": 62.3074,
        "meta_arg_of_pericenter": 179.0504,
        "meta_mean_anomaly": 210.7719,
        "meta_ephemeris_type": 0,
        "meta_classification_type": "U",
        "meta_norad_cat_id": 30675,
        "meta_element_set_no": 999,
        "meta_rev_at_epoch": 96841,
        "meta_bstar": 0.0020237837,
        "meta_mean_motion_dot": 4.994e-05,
        "meta_mean_motion_ddot": 0,
        "tle_line1": "1 30675U 99025AQH 25343.18629156  .00004994  00000+0  20238-2 0  9993",
        "tle_line2": "2 30675  98.7539  62.3074 0054098 179.0504 210.7719 14.27355823968413"
      },
      "geometry": {
        "type": "Point",
        "coordinates": [
          -112.59059303097906,
          25.979205040217373
        ]
      }
    },
    {
      "type": "Feature",
      "properties": {
        "norad_id": 30676,
        "name": "FENGYUN 1C DEB",
        "group": "fengyun-1c-debris",
        "lat": -80.26944050740597,
        "lon": -131.79639792079877,
        "alt_km": 1255.0919988616479,
        "timestamp": "2025-12-09T23:33:24.132624+00:00",
        "meta_object_name": "FENGYUN 1C DEB",
        "meta_object_id": "1999-025AQJ",
        "meta_epoch": "2025-12-09T11:44:20.402592",
        "meta_mean_motion": 13.73897866,
        "meta_eccentricity": 0.04723604,
        "meta_inclination": 98.2657,
        "meta_ra_of_asc_node": 169.8156,
        "meta_arg_of_pericenter": 57.1337,
        "meta_mean_anomaly": 307.4369,
        "meta_ephemeris_type": 0,
        "meta_classification_type": "U",
        "meta_norad_cat_id": 30676,
        "meta_element_set_no": 999,
        "meta_rev_at_epoch": 93879,
        "meta_bstar": 0.0011076738,
        "meta_mean_motion_dot": 2.305e-05,
        "meta_mean_motion_ddot": 0,
        "tle_line1": "1 30676U 99025AQJ 25343.48912503  .00002305  00000+0  11077-2 0  9993",
        "tle_line2": "2 30676  98.2657 169.8156 0472360  57.1337 307.4369 13.73897866938791"
      },
      "geometry": {
        "type": "Point",
        "coordinates": [
          -131.79639792079877,
          -80.26944050740597
        ]
      }
    },
    {
      "type": "Feature",
      "properties": {
        "norad_id": 30677,
        "name": "FENGYUN 1C DEB",
        "group": "fengyun-1c-debris",
        "lat": 50.83670723002248,
        "lon": 18.923768364469097,
        "alt_km": 804.517056360939,
        "timestamp": "2025-12-09T23:33:24.132634+00:00",
        "meta_object_name": "FENGYUN 1C DEB",
        "meta_object_id": "1999-025AQK",
        "meta_epoch": "2025-12-09T01:55:20.074080",
        "meta_mean_motion": 14.38104249,
        "meta_eccentricity": 0.00660169,
        "meta_inclination": 98.2539,
        "meta_ra_of_asc_node": 28.3232,
        "meta_arg_of_pericenter": 215.044,
        "meta_mean_anomaly": 212.6594,
        "meta_ephemeris_type": 0,
        "meta_classification_type": "U",
        "meta_norad_cat_id": 30677,
        "meta_element_set_no": 999,
        "meta_rev_at_epoch": 97927,
        "meta_bstar": 0.0014869824,
        "meta_mean_motion_dot": 4.582e-05,
        "meta_mean_motion_ddot": 0,
        "tle_line1": "1 30677U 99025AQK 25343.08009345  .00004582  00000+0  14870-2 0  9994",
        "tle_line2": "2 30677  98.2539  28.3232 0066016 215.0440 212.6594 14.38104249979275"
      },
      "geometry": {
        "type": "Point",
        "coordinates": [
          18.923768364469097,
          50.83670723002248
        ]
      }
    },
    {
      "type": "Feature",
      "properties": {
        "norad_id": 30678,
        "name": "FENGYUN 1C DEB",
        "group": "fengyun-1c-debris",
        "lat": 38.134312404593636,
        "lon": -62.5607896101645,
        "alt_km": 857.1558374839578,
        "timestamp": "2025-12-09T23:33:24.132645+00:00",
        "meta_object_name": "FENGYUN 1C DEB",
        "meta_object_id": "1999-025AQL",
        "meta_epoch": "2025-12-08T20:39:18.903744",
        "meta_mean_motion": 14.24080885,
        "meta_eccentricity": 0.00720041,
        "meta_inclination": 99.0805,
        "meta_ra_of_asc_node": 303.4945,
        "meta_arg_of_pericenter": 242.216,
        "meta_mean_anomaly": 172.9774,
        "meta_ephemeris_type": 0,
        "meta_classification_type": "U",
        "meta_norad_cat_id": 30678,
        "meta_element_set_no": 999,
        "meta_rev_at_epoch": 95820,
        "meta_bstar": 0.0048606229,
        "meta_mean_motion_dot": 0.00011451,
        "meta_mean_motion_ddot": 0,
        "tle_line1": "1 30678U 99025AQL 25342.86063546  .00011451  00000+0  48606-2 0  9990",
        "tle_line2": "2 30678  99.0805 303.4945 0072004 242.2160 172.9774 14.24080885958206"
      },
      "geometry": {
        "type": "Point",
        "coordinates": [
          -62.5607896101645,
          38.134312404593636
        ]
      }
    },
    {
      "type": "Feature",
      "properties": {
        "norad_id": 30679,
        "name": "FENGYUN 1C DEB",
        "group": "fengyun-1c-debris",
        "lat": -60.529479762669155,
        "lon": -161.2561054593829,
        "alt_km": 1086.7869617306578,
        "timestamp": "2025-12-09T23:33:24.132655+00:00",
        "meta_object_name": "FENGYUN 1C DEB",
        "meta_object_id": "1999-025AQM",
        "meta_epoch": "2025-12-09T01:48:54.564192",
        "meta_mean_motion": 13.79706818,
        "meta_eccentricity": 0.01718946,
        "meta_inclination": 99.3818,
        "meta_ra_of_asc_node": 34.8573,
        "meta_arg_of_pericenter": 88.4675,
        "meta_mean_anomaly": 335.4377,
        "meta_ephemeris_type": 0,
        "meta_classification_type": "U",
        "meta_norad_cat_id": 30679,
        "meta_element_set_no": 999,
        "meta_rev_at_epoch": 94469,
        "meta_bstar": 0.00085177149,
        "meta_mean_motion_dot": 9.4e-06,
        "meta_mean_motion_ddot": 0,
        "tle_line1": "1 30679U 99025AQM 25343.07563153  .00000940  00000+0  85177-3 0  9990",
        "tle_line2": "2 30679  99.3818  34.8573 0171894  88.4675 335.4377 13.79706818944697"
      },
      "geometry": {
        "type": "Point",
        "coordinates": [
          -161.2561054593829,
          -60.529479762669155
        ]
      }
    }
  ]
}